0 ECHOSTAR 12 (RAINBOW 1)
1 27852U 03033A   13282.38281492 -.00000296  00000-0  00000+0 0  8677
2 27852 000.0482 057.9363 0000838 099.7904 296.9169 01.00269815 37521
0 ECHOSTAR 12 (RAINBOW 1)
1 27852U 03033A   13283.42454225 -.00000299  00000-0  00000+0 0  8683
2 27852 000.0485 054.2449 0001544 126.4298 290.0200 01.00269987 37530
0 ECHOSTAR 12 (RAINBOW 1)
1 27852U 03033A   13284.25244973 -.00000302  00000-0  00000+0 0  8698
2 27852 000.0483 031.4194 0001479 132.3173 245.8197 01.00269825 37542
0 ECHOSTAR 12 (RAINBOW 1)
1 27852U 03033A   13285.09144060 -.00000304  00000-0  00000+0 0  8701
2 27852 000.0465 042.4532 0001461 120.2084 189.7519 01.00269771 37542
0 ECHOSTAR 12 (RAINBOW 1)
1 27852U 03033A   13286.08839450 -.00000306  00000-0  00000+0 0  8718
2 27852 000.0480 042.4398 0001461 120.2421 189.6352 01.00272931 37551
0 ECHOSTAR 12 (RAINBOW 1)
1 27852U 03033A   13287.36554995 -.00000308  00000-0  00000+0 0  8721
2 27852 000.0500 042.4227 0001461 120.2852 290.6450 01.00272103 37578
0 ECHOSTAR 12 (RAINBOW 1)
1 27852U 03033A   13288.24263417 -.00000307  00000-0  00000+0 0  8735
2 27852 000.0514 042.4109 0001461 120.3148 247.2428 01.00271805 37583
0 ECHOSTAR 12 (RAINBOW 1)
1 27852U 03033A   13288.24263417 -.00000307  00000-0  00000+0 0  8746
2 27852 000.0514 042.4109 0001461 120.3148 247.2435 01.00271949 37580
0 ECHOSTAR 12 (RAINBOW 1)
1 27852U 03033A   13290.35198078 -.00000304  00000-0  00000+0 0  8759
2 27852 000.0547 042.3826 0001461 120.3861 288.6415 01.00271158 37605
0 ECHOSTAR 12 (RAINBOW 1)
1 27852U 03033A   13292.24422711 -.00000300  00000-0  00000+0 0  8760
2 27852 000.0538 058.9611 0001190 122.7274 232.7931 01.00271091 37624
0 ECHOSTAR 12 (RAINBOW 1)
1 27852U 03033A   13293.26648201 -.00000299  00000-0  00000+0 0  8775
2 27852 000.0614 059.9887 0001425 114.7388 248.7762 01.00271368 37630
0 ECHOSTAR 12 (RAINBOW 1)
1 27852U 03033A   13295.21822238 -.00000295  00000-0  00000+0 0  8783
2 27852 000.0633 058.2965 0001458 146.2589 203.4837 01.00270281 37655
